start=new Date('2023-06-06T00:00:00.000Z').valueOf();
sats=[{"ELEMENT_SET_NO":"999","GP_ID":"233254182","RA_OF_ASC_NODE":"133.2215","TLE_LINE2":"2 45060  53.0529 133.2215 0001195  74.3139 285.7982 15.06401925184480","EPOCH":"2023-06-05T08:26:31.551648","MEAN_MOTION":"15.06401925","ARG_OF_PERICENTER":"74.3139","TIME_SYSTEM":"UTC","DECAY_DATE":null,"MEAN_MOTION_DOT":"0.00000107","CENTER_NAME":"EARTH","INCLINATION":"53.0529","RCS_SIZE":"LARGE","LAUNCH_DATE":"2020-01-29","CLASSIFICATION_TYPE":"U","APOAPSIS":"548.035","COUNTRY_CODE":"US","PERIOD":"95.592","TLE_LINE1":"1 45060U 20006S   23156.35175407  .00000107  00000-0  26080-4 0  9990","ECCENTRICITY":"0.00011950","REV_AT_EPOCH":"18448","PERIAPSIS":"546.380","BSTAR":"0.00002608000000","MEAN_ELEMENT_THEORY":"SGP4","REF_FRAME":"TEME","EPHEMERIS_TYPE":"0","OBJECT_TYPE":"PAYLOAD","FILE":"3925691","NORAD_CAT_ID":"45060","OBJECT_ID":"2020-006S","MEAN_ANOMALY":"285.7982","MEAN_MOTION_DDOT":"0.0000000000000","SEMIMAJOR_AXIS":"6925.343","OBJECT_NAME":"STARLINK-1166","SITE":"AFETR"},{"APOAPSIS":"547.930","COUNTRY_CODE":"US","PERIOD":"95.592","TLE_LINE1":"1 45061U 20006T   23156.95624638  .00000903  00000-0  79469-4 0  9995","ECCENTRICITY":"0.00010390","PERIAPSIS":"546.491","REV_AT_EPOCH":"18457","BSTAR":"0.00007946900000","MEAN_ELEMENT_THEORY":"SGP4","REF_FRAME":"TEME","EPHEMERIS_TYPE":"0","OBJECT_TYPE":"PAYLOAD","FILE":"3925751","NORAD_CAT_ID":"45061","OBJECT_ID":"2020-006T","MEAN_ANOMALY":"271.8428","SEMIMAJOR_AXIS":"6925.346","MEAN_MOTION_DDOT":"0.0000000000000","OBJECT_NAME":"STARLINK-1169","SITE":"AFETR","ELEMENT_SET_NO":"999","GP_ID":"233282391","RA_OF_ASC_NODE":"130.5106","TLE_LINE2":"2 45061  53.0541 130.5106 0001039  88.2680 271.8428 15.06400988184575","MEAN_MOTION":"15.06400988","EPOCH":"2023-06-05T22:56:59.687232","ARG_OF_PERICENTER":"88.2680","DECAY_DATE":null,"TIME_SYSTEM":"UTC","MEAN_MOTION_DOT":"0.00000903","INCLINATION":"53.0541","CENTER_NAME":"EARTH","RCS_SIZE":"LARGE","LAUNCH_DATE":"2020-01-29","CLASSIFICATION_TYPE":"U"},{"ECCENTRICITY":"0.00012160","TLE_LINE1":"1 45062U 20006U   23156.34438155  .00001046  00000-0  89093-4 0  9999","PERIOD":"95.592","COUNTRY_CODE":"US","APOAPSIS":"548.057","MEAN_MOTION_DDOT":"0.0000000000000","SEMIMAJOR_AXIS":"6925.350","MEAN_ANOMALY":"272.4142","SITE":"AFETR","OBJECT_NAME":"STARLINK-1171","NORAD_CAT_ID":"45062","OBJECT_ID":"2020-006U","REF_FRAME":"TEME","MEAN_ELEMENT_THEORY":"SGP4","FILE":"3925691","OBJECT_TYPE":"PAYLOAD","EPHEMERIS_TYPE":"0","REV_AT_EPOCH":"18448","PERIAPSIS":"546.373","BSTAR":"0.00008909300000","ARG_OF_PERICENTER":"87.6986","EPOCH":"2023-06-05T08:15:54.565920","MEAN_MOTION":"15.06399431","DECAY_DATE":null,"TIME_SYSTEM":"UTC","TLE_LINE2":"2 45062  53.0539 133.2532 0001216  87.6986 272.4142 15.06399431184485","GP_ID":"233253680","RA_OF_ASC_NODE":"133.2532","ELEMENT_SET_NO":"999","RCS_SIZE":"LARGE","CLASSIFICATION_TYPE":"U","LAUNCH_DATE":"2020-01-29","MEAN_MOTION_DOT":"0.00001046","CENTER_NAME":"EARTH","INCLINATION":"53.0539"},{"RCS_SIZE":"LARGE","CLASSIFICATION_TYPE":"U","LAUNCH_DATE":"2020-01-29","MEAN_MOTION_DOT":"0.00000623","CENTER_NAME":"EARTH","INCLINATION":"53.0543","GP_ID":"233253932","RA_OF_ASC_NODE":"113.4928","ELEMENT_SET_NO":"999","ARG_OF_PERICENTER":"94.5036","MEAN_MOTION":"15.06389666","EPOCH":"2023-06-05T06:58:57.496800","DECAY_DATE":null,"TIME_SYSTEM":"UTC","TLE_LINE2":"2 45064  53.0543 113.4928 0001368  94.5036 265.6109 15.06389666184758","REF_FRAME":"TEME","MEAN_ELEMENT_THEORY":"SGP4","OBJECT_TYPE":"PAYLOAD","FILE":"3925691","EPHEMERIS_TYPE":"0","REV_AT_EPOCH":"18475","PERIAPSIS":"546.298","BSTAR":"0.00006074000000","SEMIMAJOR_AXIS":"6925.380","MEAN_MOTION_DDOT":"0.0000000000000","MEAN_ANOMALY":"265.6109","SITE":"AFETR","OBJECT_NAME":"STARLINK-1133","NORAD_CAT_ID":"45064","OBJECT_ID":"2020-006W","PERIOD":"95.593","COUNTRY_CODE":"US","APOAPSIS":"548.193","TLE_LINE1":"1 45064U 20006W   23156.29094325  .00000623  00000-0  60740-4 0  9990","ECCENTRICITY":"0.00013680"},{"GP_ID":"233281640","RA_OF_ASC_NODE":"110.0900","ELEMENT_SET_NO":"999","EPOCH":"2023-06-05T21:22:02.538624","MEAN_MOTION":"15.09149100","ARG_OF_PERICENTER":"55.5035","DECAY_DATE":null,"TIME_SYSTEM":"UTC","TLE_LINE2":"2 45065  53.0533 110.0900 0004513  55.5035 304.6381 15.09149100184859","RCS_SIZE":"LARGE","LAUNCH_DATE":"2020-01-29","CLASSIFICATION_TYPE":"U","MEAN_MOTION_DOT":"0.00010633","CENTER_NAME":"EARTH","INCLINATION":"53.0533","COUNTRY_CODE":"US","PERIOD":"95.418","APOAPSIS":"541.922","TLE_LINE1":"1 45065U 20006X   23156.89030716  .00010633  00000-0  67934-3 0  9994","ECCENTRICITY":"0.00045130","MEAN_ELEMENT_THEORY":"SGP4","REF_FRAME":"TEME","EPHEMERIS_TYPE":"0","FILE":"3925751","OBJECT_TYPE":"PAYLOAD","REV_AT_EPOCH":"18485","PERIAPSIS":"535.679","BSTAR":"0.00067934000000","MEAN_ANOMALY":"304.6381","SEMIMAJOR_AXIS":"6916.936","MEAN_MOTION_DDOT":"0.0000000000000","OBJECT_NAME":"STARLINK-1139","SITE":"AFETR","NORAD_CAT_ID":"45065","OBJECT_ID":"2020-006X"},{"PERIOD":"95.592","COUNTRY_CODE":"US","APOAPSIS":"548.092","ECCENTRICITY":"0.00012680","TLE_LINE1":"1 45066U 20006Y   23156.60056022  .00003119  00000-0  22820-3 0  9998","OBJECT_TYPE":"PAYLOAD","FILE":"3925751","EPHEMERIS_TYPE":"0","REF_FRAME":"TEME","MEAN_ELEMENT_THEORY":"SGP4","BSTAR":"0.00022820000000","PERIAPSIS":"546.336","REV_AT_EPOCH":"18479","SITE":"AFETR","OBJECT_NAME":"STARLINK-1145","MEAN_MOTION_DDOT":"0.0000000000000","SEMIMAJOR_AXIS":"6925.349","MEAN_ANOMALY":"273.8184","OBJECT_ID":"2020-006Y","NORAD_CAT_ID":"45066","RA_OF_ASC_NODE":"112.1034","GP_ID":"233281892","ELEMENT_SET_NO":"999","DECAY_DATE":null,"TIME_SYSTEM":"UTC","ARG_OF_PERICENTER":"86.2950","EPOCH":"2023-06-05T14:24:48.403008","MEAN_MOTION":"15.06399757","TLE_LINE2":"2 45066  53.0542 112.1034 0001268  86.2950 273.8184 15.06399757184795","CLASSIFICATION_TYPE":"U","LAUNCH_DATE":"2020-01-29","RCS_SIZE":"LARGE","CENTER_NAME":"EARTH","INCLINATION":"53.0542","MEAN_MOTION_DOT":"0.00003119"},{"ECCENTRICITY":"0.00012100","TLE_LINE1":"1 45067U 20006Z   23156.61529816  .00001813  00000-0  14057-3 0  9998","APOAPSIS":"548.052","PERIOD":"95.592","COUNTRY_CODE":"US","NORAD_CAT_ID":"45067","OBJECT_ID":"2020-006Z","SEMIMAJOR_AXIS":"6925.349","MEAN_MOTION_DDOT":"0.0000000000000","MEAN_ANOMALY":"260.4616","SITE":"AFETR","OBJECT_NAME":"STARLINK-1150","PERIAPSIS":"546.376","REV_AT_EPOCH":"18480","BSTAR":"0.00014057000000","REF_FRAME":"TEME","MEAN_ELEMENT_THEORY":"SGP4","FILE":"3925751","OBJECT_TYPE":"PAYLOAD","EPHEMERIS_TYPE":"0","TLE_LINE2":"2 45067  53.0550 112.0365 0001210  99.6509 260.4616 15.06399854184808","ARG_OF_PERICENTER":"99.6509","EPOCH":"2023-06-05T14:46:01.761024","MEAN_MOTION":"15.06399854","TIME_SYSTEM":"UTC","DECAY_DATE":null,"ELEMENT_SET_NO":"999","GP_ID":"233282642","RA_OF_ASC_NODE":"112.0365","MEAN_MOTION_DOT":"0.00001813","INCLINATION":"53.0550","CENTER_NAME":"EARTH","RCS_SIZE":"LARGE","CLASSIFICATION_TYPE":"U","LAUNCH_DATE":"2020-01-29"},{"PERIOD":"95.593","COUNTRY_CODE":"US","APOAPSIS":"547.938","TLE_LINE1":"1 45068U 20006AA  23156.65488826 -.00000187  00000-0  63545-5 0  9990","ECCENTRICITY":"0.00010140","REF_FRAME":"TEME","MEAN_ELEMENT_THEORY":"SGP4","FILE":"3925751","OBJECT_TYPE":"PAYLOAD","EPHEMERIS_TYPE":"0","PERIAPSIS":"546.534","REV_AT_EPOCH":"18480","BSTAR":"0.00000635450000","MEAN_MOTION_DDOT":"0.0000000000000","SEMIMAJOR_AXIS":"6925.371","MEAN_ANOMALY":"266.2061","SITE":"AFETR","OBJECT_NAME":"STARLINK-1161","NORAD_CAT_ID":"45068","OBJECT_ID":"2020-006AA","GP_ID":"233280891","RA_OF_ASC_NODE":"111.7241","ELEMENT_SET_NO":"999","ARG_OF_PERICENTER":"93.9044","MEAN_MOTION":"15.06392755","EPOCH":"2023-06-05T15:43:02.345664","TIME_SYSTEM":"UTC","DECAY_DATE":null,"TLE_LINE2":"2 45068  53.0546 111.7241 0001014  93.9044 266.2061 15.06392755184807","RCS_SIZE":"LARGE","CLASSIFICATION_TYPE":"U","LAUNCH_DATE":"2020-01-29","MEAN_MOTION_DOT":"-0.00000187","INCLINATION":"53.0546","CENTER_NAME":"EARTH"},{"CLASSIFICATION_TYPE":"U","LAUNCH_DATE":"2020-01-29","RCS_SIZE":"LARGE","INCLINATION":"53.0566","CENTER_NAME":"EARTH","MEAN_MOTION_DOT":"0.00001391","DECAY_DATE":null,"TIME_SYSTEM":"UTC","ARG_OF_PERICENTER":"102.6535","MEAN_MOTION":"15.06395094","EPOCH":"2023-06-05T13:58:15.871296","TLE_LINE2":"2 45071  53.0566 112.1940 0001073 102.6535 257.4574 15.06395094184790","RA_OF_ASC_NODE":"112.1940","GP_ID":"233254183","ELEMENT_SET_NO":"999","SITE":"AFETR","OBJECT_NAME":"STARLINK-1167","SEMIMAJOR_AXIS":"6925.364","MEAN_MOTION_DDOT":"0.0000000000000","MEAN_ANOMALY":"257.4574","OBJECT_ID":"2020-006AD","NORAD_CAT_ID":"45071","OBJECT_TYPE":"PAYLOAD","FILE":"3925691","EPHEMERIS_TYPE":"0","REF_FRAME":"TEME","MEAN_ELEMENT_THEORY":"SGP4","BSTAR":"0.00011229000000","PERIAPSIS":"546.486","REV_AT_EPOCH":"18479","TLE_LINE1":"1 45071U 20006AD  23156.58212814  .00001391  00000-0  11229-3 0  9995","ECCENTRICITY":"0.00010730","PERIOD":"95.592","COUNTRY_CODE":"US","APOAPSIS":"547.972"},{"MEAN_MOTION_DOT":"0.00001634","INCLINATION":"53.0544","CENTER_NAME":"EARTH","RCS_SIZE":"LARGE","CLASSIFICATION_TYPE":"U","LAUNCH_DATE":"2020-01-29","ELEMENT_SET_NO":"999","GP_ID":"233282392","RA_OF_ASC_NODE":"111.8702","TLE_LINE2":"2 45072  53.0544 111.8702 0001334 101.9579 258.1560 15.06396927184800","ARG_OF_PERICENTER":"101.9579","MEAN_MOTION":"15.06396927","EPOCH":"2023-06-05T15:39:07.107840","DECAY_DATE":null,"TIME_SYSTEM":"UTC","REV_AT_EPOCH":"18480","PERIAPSIS":"546.299","BSTAR":"0.00012858000000","REF_FRAME":"TEME","MEAN_ELEMENT_THEORY":"SGP4","OBJECT_TYPE":"PAYLOAD","FILE":"3925751","EPHEMERIS_TYPE":"0","NORAD_CAT_ID":"45072","OBJECT_ID":"2020-006AE","SEMIMAJOR_AXIS":"6925.358","MEAN_MOTION_DDOT":"0.0000000000000","MEAN_ANOMALY":"258.1560","SITE":"AFETR","OBJECT_NAME":"STARLINK-1168","APOAPSIS":"548.147","PERIOD":"95.592","COUNTRY_CODE":"US","TLE_LINE1":"1 45072U 20006AE  23156.65216560  .00001634  00000-0  12858-3 0  9995","ECCENTRICITY":"0.00013340"}];
